NORAD_CAT_ID,OBJECT_NAME,OBJECT_TYPE,EPOCH,MEAN_MOTION,ECCENTRICITY,INCLINATION,RA_OF_ASC_NODE,ARG_OF_PERICENTER,MEAN_ANOMALY,BSTAR,MEAN_MOTION_DOT,MEAN_MOTION_DDOT,TLE_LINE0,TLE_LINE1,TLE_LINE2,SEMIMAJOR_AXIS,PERIOD,APOGEE,PERIGEE,DECAYED
52555.0,STARLINK-3949,PAYLOAD,2024-01-01 11:26:31,15.08838466,0.0001761,53.2181,112.5152,113.3554,246.7624,0.00011754,1.583e-05,0.0,0 STARLINK-3949,1 52555U 22051Y   24001.47675238  .00001583  00000-0  11754-3 0  9999,2 52555  53.2181 112.5152 0001761 113.3554 246.7624 15.08838466 91019,6917.885,95.438,540.968,538.532,0.0
52555.0,STARLINK-3949,PAYLOAD,2024-01-01 14:37:17,15.08845602,0.0001452,53.2179,111.9213,85.836,274.2798,9.0854e-05,1.158e-05,0.0,0 STARLINK-3949,1 52555U 22051Y   24001.60923017  .00001158  00000-0  90854-4 0  9992,2 52555  53.2179 111.9213 0001452  85.8360 274.2798 15.08845602 90963,6917.863,95.437,540.733,538.724,0.0
52555.0,STARLINK-3949,PAYLOAD,2024-01-02 11:17:18,15.08838226,0.0001503,53.218,108.0564,77.32,282.796,5.5675e-05,5.98e-06,0.0,0 STARLINK-3949,1 52555U 22051Y   24002.47035665  .00000598  00000-0  55675-4 0  9990,2 52555  53.2180 108.0564 0001503  77.3200 282.7960 15.08838226 91169,6917.886,95.438,540.791,538.711,0.0
52555.0,STARLINK-3949,PAYLOAD,2024-01-02 14:28:04,15.08841831,0.0001725,53.2185,107.462,68.4901,291.6275,7.8787e-05,9.66e-06,0.0,0 STARLINK-3949,1 52555U 22051Y   24002.60283492  .00000966  00000-0  78787-4 0  9996,2 52555  53.2185 107.4620 0001725  68.4901 291.6275 15.08841831 91114,6917.875,95.437,540.933,538.546,0.0
52555.0,STARLINK-3949,PAYLOAD,2024-01-02 16:03:27,15.08863765,0.0001717,53.2186,107.1649,81.1856,278.933,-0.00020163,-3.498e-05,0.0,0 STARLINK-3949,1 52555U 22051Y   24002.66906772 -.00003498  00000-0 -20163-3 0  9994,2 52555  53.2186 107.1649 0001717  81.1856 278.9330 15.08863765 91193,6917.808,95.436,540.861,538.485,0.0
52555.0,STARLINK-3949,PAYLOAD,2024-01-03 11:08:06,15.08836451,0.0001655,53.2185,103.5953,72.857,287.2603,-4.6923e-05,-1.035e-05,0.0,0 STARLINK-3949,1 52555U 22051Y   24003.46396271 -.00001035  00000-0 -46923-4 0  9998,2 52555  53.2185 103.5953 0001655  72.8570 287.2603 15.08836451 91313,6917.891,95.438,540.901,538.611,0.0
52555.0,STARLINK-3949,PAYLOAD,2024-01-03 14:18:51,15.08859389,0.0001514,53.2185,102.9945,110.757,249.3585,5.8189e-05,6.39e-06,0.0,0 STARLINK-3949,1 52555U 22051Y   24003.59642388  .00000639  00000-0  58189-4 0  9999,2 52555  53.2185 102.9945 0001514 110.7570 249.3585 15.08859389 91260,6917.821,95.436,540.733,538.639,0.0
52555.0,STARLINK-3949,PAYLOAD,2024-01-04 10:58:52,15.08844933,0.0001391,53.2183,99.134,104.068,256.0467,-2.9368e-06,-3.35e-06,0.0,0 STARLINK-3949,1 52555U 22051Y   24004.45755163 -.00000335  00000-0 -29368-5 0  9994,2 52555  53.2183  99.1340 0001391 104.0680 256.0467 15.08844933 91460,6917.865,95.437,540.693,538.768,0.0
52555.0,STARLINK-3949,PAYLOAD,2024-01-04 12:34:15,15.0884556,0.0001556,53.2178,98.8365,80.34,279.7768,2.0879e-06,-2.55e-06,0.0,0 STARLINK-3949,1 52555U 22051Y   24004.52379255 -.00000255  00000-0  20879-5 0  9994,2 52555  53.2178  98.8365 0001556  80.3400 279.7768 15.08845560 91403,6917.863,95.437,540.805,538.652,0.0
52555.0,STARLINK-3949,PAYLOAD,2024-01-04 15:45:01,15.08847202,0.0001461,53.2178,98.2404,86.6897,273.4262,1.2802e-05,-8.4e-07,0.0,0 STARLINK-3949,1 52555U 22051Y   24004.65627013 -.00000084  00000-0  12802-4 0  9992,2 52555  53.2178  98.2404 0001461  86.6897 273.4262 15.08847202 91422,6917.858,95.437,540.734,538.713,0.0
52555.0,STARLINK-3949,PAYLOAD,2024-01-05 12:25:03,15.08834558,0.0001713,53.2183,94.3775,78.6882,281.4302,1.6203e-05,-3e-07,0.0,0 STARLINK-3949,1 52555U 22051Y   24005.51740215 -.00000030  00000-0  16203-4 0  9998,2 52555  53.2183  94.3775 0001713  78.6882 281.4302 15.08834558 91627,6917.897,95.438,540.947,538.577,0.0
52555.0,STARLINK-3949,PAYLOAD,2024-01-05 15:35:49,15.08842547,0.0001706,53.2192,93.779,90.6639,269.4548,-8.2756e-06,-4.2e-06,0.0,0 STARLINK-3949,1 52555U 22051Y   24005.64988077 -.00000420  00000-0 -82756-5 0  9993,2 52555  53.2192  93.7790 0001706  90.6639 269.4548 15.08842547 91572,6917.873,95.437,540.918,538.557,0.0
52555.0,STARLINK-3949,PAYLOAD,2024-01-06 12:15:50,15.08844464,0.0001507,53.2183,89.9143,91.3073,268.8092,1.5915e-05,-3.5e-07,0.0,0 STARLINK-3949,1 52555U 22051Y   24006.51099600 -.00000035  00000-0  15915-4 0  9998,2 52555  53.2183  89.9143 0001507  91.3073 268.8092 15.08844464 91779,6917.867,95.437,540.774,538.689,0.0
52555.0,STARLINK-3949,PAYLOAD,2024-01-06 15:26:36,15.08843888,0.0001504,53.2185,89.3189,104.2469,255.8691,7.7497e-05,9.46e-06,0.0,0 STARLINK-3949,1 52555U 22051Y   24006.64347355  .00000946  00000-0  77497-4 0  9998,2 52555  53.2185  89.3189 0001504 104.2469 255.8691 15.08843888 91720,6917.869,95.437,540.774,538.693,0.0
52555.0,STARLINK-3949,PAYLOAD,2024-01-07 05:45:05,15.08836328,0.0001515,53.2188,86.6436,93.5102,266.6064,2.689e-05,1.4e-06,0.0,0 STARLINK-3949,1 52555U 22051Y   24007.23964274  .00000140  00000-0  26890-4 0  9996,2 52555  53.2188  86.6436 0001515  93.5102 266.6064 15.08836328 91886,6917.892,95.438,540.805,538.709,0.0
52555.0,STARLINK-3949,PAYLOAD,2024-01-07 12:06:37,15.0884133,0.0001423,53.2179,85.4535,92.0501,268.0654,6.9115e-05,8.12e-06,0.0,0 STARLINK-3949,1 52555U 22051Y   24007.50459854  .00000812  00000-0  69115-4 0  9992,2 52555  53.2179  85.4535 0001423  92.0501 268.0654 15.08841330 91855,6917.876,95.437,540.726,538.757,0.0
52555.0,STARLINK-3949,PAYLOAD,2024-01-08 10:22:01,15.08840747,0.0001403,53.2176,81.2918,92.8322,267.2831,2.9851e-05,1.87e-06,0.0,0 STARLINK-3949,1 52555U 22051Y   24008.43196128  .00000187  00000-0  29851-4 0  9995,2 52555  53.2176  81.2918 0001403  92.8322 267.2831 15.08840747 92061,6917.878,95.438,540.714,538.773,0.0
52555.0,STARLINK-3949,PAYLOAD,2024-01-09 11:48:11,15.08843565,0.0001415,53.2176,76.5352,78.7168,281.3983,7.0571e-05,8.35e-06,0.0,0 STARLINK-3949,1 52555U 22051Y   24009.49180073  .00000835  00000-0  70571-4 0  9999,2 52555  53.2176  76.5352 0001415  78.7168 281.3983 15.08843565 92228,6917.869,95.437,540.713,538.756,0.0
52555.0,STARLINK-3949,PAYLOAD,2024-01-09 13:23:34,15.08847584,0.0001426,53.2175,76.2371,94.0796,266.0359,0.00010669,1.411e-05,0.0,0 STARLINK-3949,1 52555U 22051Y   24009.55803656  .00001411  00000-0  10669-3 0  9997,2 52555  53.2175  76.2371 0001426  94.0796 266.0359 15.08847584 92160,6917.857,95.437,540.709,538.736,0.0
52555.0,STARLINK-3949,PAYLOAD,2024-01-10 10:03:35,15.08839263,0.0001704,53.2191,72.3741,83.2171,276.9015,7.8313e-05,9.58e-06,0.0,0 STARLINK-3949,1 52555U 22051Y   24010.41916400  .00000958  00000-0  78313-4 0  9992,2 52555  53.2191  72.3741 0001704  83.2171 276.9015 15.08839263 92368,6917.883,95.438,540.926,538.569,0.0
52555.0,STARLINK-3949,PAYLOAD,2024-01-11 13:05:08,15.08850171,0.0001891,53.2194,67.3101,77.4664,282.654,6.9725e-05,8.22e-06,0.0,0 STARLINK-3949,1 52555U 22051Y   24011.54523592  .00000822  00000-0  69725-4 0  9990,2 52555  53.2194  67.3101 0001891  77.4664 282.6540 15.08850171 92463,6917.849,95.437,541.022,538.406,0.0
52555.0,STARLINK-3949,PAYLOAD,2024-01-12 09:45:10,15.08838757,0.0001979,53.2191,63.4528,68.7697,291.3507,5.1769e-06,-2.06e-06,0.0,0 STARLINK-3949,1 52555U 22051Y   24012.40636762 -.00000206  00000-0  51769-5 0  9997,2 52555  53.2191  63.4528 0001979  68.7697 291.3507 15.08838757 92664,6917.884,95.438,541.118,538.38,0.0
52555.0,STARLINK-3949,PAYLOAD,2024-01-13 09:35:56,15.08844587,0.0001693,53.2189,58.9922,97.9939,262.1245,-1.0905e-05,-4.62e-06,0.0,0 STARLINK-3949,1 52555U 22051Y   24013.39996406 -.00000462  00000-0 -10905-4 0  9991,2 52555  53.2189  58.9922 0001693  97.9939 262.1245 15.08844587 92746,6917.866,95.437,540.903,538.56,0.0
52555.0,STARLINK-3949,PAYLOAD,2024-01-14 03:05:11,15.08838713,0.0001579,53.2168,55.7189,111.2907,248.8254,3.1031e-05,2.06e-06,0.0,0 STARLINK-3949,1 52555U 22051Y   24014.12860796  .00000206  00000-0  31031-4 0  9992,2 52555  53.2168  55.7189 0001579 111.2907 248.8254 15.08838713 92926,6917.884,95.438,540.842,538.657,0.0
52555.0,STARLINK-3949,PAYLOAD,2024-01-14 09:26:44,15.08841025,0.0001797,53.2184,54.5353,110.3283,249.7902,0.00010977,1.459e-05,0.0,0 STARLINK-3949,1 52555U 22051Y   24014.39356518  .00001459  00000-0  10977-3 0  9999,2 52555  53.2184  54.5353 0001797 110.3283 249.7902 15.08841025 92899,6917.877,95.437,540.985,538.499,0.0
52555.0,STARLINK-3949,PAYLOAD,2024-01-15 09:17:30,15.08845918,0.0001926,53.2196,50.0708,103.4803,256.6404,0.00012451,1.694e-05,0.0,0 STARLINK-3949,1 52555U 22051Y   24015.38716342  .00001694  00000-0  12451-3 0  9994,2 52555  53.2196  50.0708 0001926 103.4803 256.6404 15.08845918 93117,6917.862,95.437,541.06,538.395,0.0
52555.0,STARLINK-3949,PAYLOAD,2024-01-16 02:46:46,15.08834114,0.0001836,53.2182,46.8033,108.8996,251.2195,3.2781e-05,2.34e-06,0.0,0 STARLINK-3949,1 52555U 22051Y   24016.11581481  .00000234  00000-0  32781-4 0  9998,2 52555  53.2182  46.8033 0001836 108.8996 251.2195 15.08834114 93224,6917.898,95.438,541.034,538.493,0.0
52555.0,STARLINK-3949,PAYLOAD,2024-01-16 09:08:19,15.08831944,0.0001594,53.2192,45.6141,89.6491,270.4684,2.7378e-06,-2.44e-06,0.0,0 STARLINK-3949,1 52555U 22051Y   24016.38077904 -.00000244  00000-0  27378-5 0  9996,2 52555  53.2192  45.6141 0001594  89.6491 270.4684 15.08831944 93199,6917.905,95.438,540.873,538.667,0.0
52555.0,STARLINK-3949,PAYLOAD,2024-01-17 08:59:05,15.08843246,0.0001685,53.2188,41.1498,96.3211,263.7973,4.6108e-05,4.46e-06,0.0,0 STARLINK-3949,1 52555U 22051Y   24017.37437343  .00000446  00000-0  46108-4 0  9997,2 52555  53.2188  41.1498 0001685  96.3211 263.7973 15.08843246 93415,6917.87,95.437,540.901,538.57,0.0
52555.0,STARLINK-3949,PAYLOAD,2024-01-18 10:25:16,15.08836705,0.0001999,53.2198,36.386,67.048,293.0723,0.00028294,4.217e-05,0.0,0 STARLINK-3949,1 52555U 22051Y   24018.43421690  .00004217  00000-0  28294-3 0  9998,2 52555  53.2198  36.3860 0001999  67.0480 293.0723 15.08836705 93574,6917.89,95.438,541.138,538.373,0.0
